[{"OBJECT_NAME":"STARLINK-33659","OBJECT_ID":"2025-069N","EPOCH":"2026-03-09T12:20:13.378272","MEAN_MOTION":15.30219919,"ECCENTRICITY":0.00012439,"INCLINATION":53.159,"RA_OF_ASC_NODE":143.5893,"ARG_OF_PERICENTER":47.2398,"MEAN_ANOMALY":312.8707,"EPHEMERIS_TYPE":0,"CLASSIFICATION_TYPE":"U","NORAD_CAT_ID":63445,"ELEMENT_SET_NO":999,"REV_AT_EPOCH":5332,"BSTAR":0.00072406312,"MEAN_MOTION_DOT":0.0002116,"MEAN_MOTION_DDOT":0},{"OBJECT_NAME":"FENGYUN 1C DEB","OBJECT_ID":"1999-025AQG","EPOCH":"2026-03-09T10:43:06.043872","MEAN_MOTION":15.25746961,"ECCENTRICITY":0.00178142,"INCLINATION":98.9311,"RA_OF_ASC_NODE":250.2123,"ARG_OF_PERICENTER":328.3876,"MEAN_ANOMALY":31.6286,"EPHEMERIS_TYPE":0,"CLASSIFICATION_TYPE":"U","NORAD_CAT_ID":30674,"ELEMENT_SET_NO":999,"REV_AT_EPOCH":98658,"BSTAR":0.015201752,"MEAN_MOTION_DOT":0.00411052,"MEAN_MOTION_DDOT":0}]
